STARLINK-4676           
1 53598U 22104L   24169.78031597  .00000066  00000+0  22205-4 0  9997
2 53598  53.2154 191.6336 0001301  85.2285 274.8856 15.08838115100524
STARLINK-4677           
1 53600U 22104N   24169.77767391  .00000109  00000+0  24956-4 0  9991
2 53600  53.2162 192.3104 0001094  90.2071 269.9047 15.08838678100516
STARLINK-4675           
1 53601U 22104P   24169.79136849 -.00000921  00000+0 -39770-4 0  9996
2 53601  53.2156 191.7001 0001385  84.2900 275.8250 15.08842141100529
STARLINK-4648           
1 53602U 22104Q   24169.33367841  .00000012  00000+0  18855-4 0  9995
2 53602  53.2169 188.8404 0001403  95.1629 264.9523 15.08841557100520
STARLINK-4692           
1 53603U 22104R   24169.75322977  .00000166  00000+0  28548-4 0  9993
2 53603  53.2158 187.1913 0001270  89.6348 270.4789 15.08835658100581
STARLINK-4690           
1 53604U 22104S   24169.45879067 -.00000005  00000+0  17758-4 0  9992
2 53604  53.2172 188.1965 0001485  93.4508 266.6654 15.08839044100542
STARLINK-4693           
1 53605U 22104T   24169.78399974  .00000238  00000+0  33018-4 0  9997
2 53605  53.2161 191.6551 0001449  83.7568 276.3589 15.08842082100528
STARLINK-4590           
1 53606U 22104U   24169.74816215  .00000462  00000+0  47112-4 0  9995
2 53606  53.2166 182.1533 0001213  86.8406 273.2725 15.08840301100534
STARLINK-4591           
1 53607U 22104V   24170.20585411 -.00000900  00000+0 -38484-4 0  9991
2 53607  53.2158 185.0380 0001139  89.1613 270.9510 15.08833669 99960
STARLINK-4647           
1 53608U 22104W   24169.75553161  .00000350  00000+0  40059-4 0  9995
2 53608  53.2166 182.1980 0001346  87.6935 272.4211 15.08841558100531
STARLINK-4660           
1 53609U 22104X   24170.04020907  .00001442  00000+0  10867-3 0  9993
2 53609  53.2153 185.4281 0001370  89.6315 270.4834 15.08839073 99949
STARLINK-4610           
1 53610U 22104Y   24169.74911650  .00000127  00000+0  26057-4 0  9992
2 53610  53.2167 182.1605 0001249  86.9857 273.1278 15.08840379100537
STARLINK-4650           
1 53611U 22104Z   24169.72313858 -.00000681  00000+0 -21998-4 0  9993
2 53611  53.2176 177.8677 0001449   1.4412 358.6586 15.12109177100719
STARLINK-4658           
1 53612U 22104AA  24170.20815785  .00000278  00000+0  35536-4 0  9998
2 53612  53.2160 180.0480 0001316  88.4446 271.6697 15.08834651100035
STARLINK-4655           
1 53613U 22104AB  24169.75184708  .00000593  00000+0  55325-4 0  9999
2 53613  53.2162 182.1751 0001303  87.6854 272.4287 15.08840382100539
STARLINK-4605           
1 53616U 22104AE  24169.74168982 -.00000052  00000+0  14851-4 0  9997
2 53616  53.2162 171.9432 0001392  85.8075 274.3076 15.08840915100783
STARLINK-4601           
1 53617U 22104AF  24169.74080388 -.00001252  00000+0 -60623-4 0  9993
2 53617  53.2161 182.1028 0001349  86.3547 273.7600 15.08825337100530
STARLINK-4604           
1 53618U 22104AG  24169.72973328 -.00000287  00000+0  25981-7 0  9994
2 53618  53.2161 182.0377 0001163  84.3333 275.7791 15.08842091 99954
STARLINK-4609           
1 53619U 22104AH  24170.20079004 -.00000125  00000+0  10230-4 0  9997
2 53619  53.2164 180.0016 0001250  88.0519 272.0616 15.08834226100039
STARLINK-4615           
1 53620U 22104AJ  24169.32492354  .00000144  00000+0  27110-4 0  9992
2 53620  53.2165 183.7768 0001403  92.3226 267.7927 15.08841739100582
STARLINK-4608           
1 53621U 22104AK  24169.73341966 -.00000070  00000+0  13699-4 0  9996
2 53621  53.2161 182.0620 0001345  87.9922 272.1224 15.08837728100534
STARLINK-4568           
1 53622U 22104AL  24170.16393784  .00000705  00000+0  62403-4 0  9992
2 53622  53.2155 179.7767 0001386  91.2678 268.8473 15.08837062100038
STARLINK-4573           
1 53623U 22104AM  24169.72605211 -.00001970  00000+0 -10572-3 0  9990
2 53623  53.2171 182.0178 0001513  83.1070 277.0094 15.08844751100649
STARLINK-4596           
1 53624U 22104AN  24169.31755386  .00000344  00000+0  39684-4 0  9993
2 53624  53.2165 183.7305 0001441  93.8721 266.2436 15.08841682100587
STARLINK-4603           
1 53625U 22104AP  24170.18236247  .00000283  00000+0  35865-4 0  9990
2 53625  53.2159 179.8835 0001362  89.0960 271.0188 15.08834129100035
STARLINK-4554           
1 53626U 22104AQ  24170.16762337  .00000744  00000+0  64804-4 0  9990
2 53626  53.2152 179.7961 0001420  91.7424 268.3731 15.08838156100035
STARLINK-4595           
1 53627U 22104AR  24170.17499159  .00000363  00000+0  40882-4 0  9998
2 53627  53.2154 179.8419 0001256  91.1926 268.9210 15.08841508100038
STARLINK-4600           
1 53628U 22104AS  24169.76281050  .00000231  00000+0  32626-4 0  9992
2 53628  53.2151 181.5345 0001225  84.5790 275.5342 15.08841832100664
STARLINK-4602           
1 53629U 22104AT  24170.17130481 -.00000756  00000+0 -29379-4 0  9996
2 53629  53.2155 179.8199 0001676  63.8947 296.2218 15.08843486100030
STARLINK-4598           
1 53630U 22104AU  24169.74266998  .00000003  00000+0  18257-4 0  9998
2 53630  53.2158 172.1366 0001341  86.0404 274.0741 15.08842719100966
STARLINK-4599           
1 53631U 22104AV  24170.02408970  .00000083  00000+0  23311-4 0  9995
2 53631  53.2155 180.3246 0001332  87.9238 272.1906 15.08836486100019
STARLINK-4606           
1 53632U 22104AW  24170.19801982  .00000389  00000+0  42549-4 0  9997
2 53632  53.2164 170.0013 0001671  94.1137 266.0046 15.08838968100173
STARLINK-4593           
1 53633U 22104AX  24169.40683111  .00000015  00000+0  19045-4 0  9993
2 53633  53.2161 173.5959 0001360  86.7279 273.3868 15.08839684100749
STARLINK-4592           
1 53634U 22104AY  24169.72697246  .00000169  00000+0  28677-4 0  9994
2 53634  53.2157 172.0413 0001339  86.7491 273.3654 15.08838674101120
STARLINK-4587           
1 53635U 22104AZ  24169.73066127  .00000211  00000+0  31357-4 0  9991
2 53635  53.2159 172.0623 0001332  87.1390 272.9754 15.08837018101129
STARLINK-4586           
1 53636U 22104BA  24170.18330929  .00004878  00000+0  32443-3 0  9996
2 53636  53.2168 169.9148 0001405  93.0913 267.0240 15.08828365100179
STARLINK-4396           
1 53637U 22104BB  24170.21740358  .00000154  00000+0  27760-4 0  9992
2 53637  53.2163 170.1169 0001310  92.0784 268.0358 15.08839598100173
STARLINK-4594           
1 53638U 22104BC  24170.16486328  .00000367  00000+0  41158-4 0  9994
2 53638  53.2164 169.8011 0001275  87.2004 272.9135 15.08835277100174
STARLINK-4422           
1 53639U 22104BD  24170.17960370  .00000075  00000+0  22827-4 0  9998
2 53639  53.2162 169.8890 0001258  85.5603 274.5533 15.08833675100175
STARLINK-4597           
1 53640U 22104BE  24169.71223827  .00000206  00000+0  31030-4 0  9999
2 53640  53.2176 171.9505 0001332  89.3072 270.8073 15.08837119101125
STARLINK-4588           
1 53641U 22104BF  24170.18697092  .00000610  00000+0  56444-4 0  9997
2 53641  53.2161 169.9334 0001364  88.1588 271.9560 15.08835708100170
STARLINK-4622           
1 53648U 22105A   24169.91337223 -.00000636  00000+0 -44941-4 0  9990
2 53648  97.6559  50.7235 0000481 133.3972 226.7293 15.01257367 98759
STARLINK-4386           
1 53649U 22105B   24169.91151978 -.00000639  00000+0 -45166-4 0  9995
2 53649  97.6559  50.7210 0000491 128.3776 231.7493 15.01258049 98745
STARLINK-4380           
1 53650U 22105C   24169.90966703 -.00001105  00000+0 -81430-4 0  9999
2 53650  97.6557  50.7187 0000460 192.9392 167.1821 15.01259366 98745
STARLINK-4388           
1 53651U 22105D   24169.90781534 -.00000473  00000+0 -32212-4 0  9998
2 53651  97.6560  50.7164 0000685 209.6751 150.4435 15.01259040 98744
STARLINK-4374           
1 53652U 22105E   24169.90596298 -.00001260  00000+0 -93530-4 0  9995
2 53652  97.6562  50.7147 0000714 223.7741 136.3427 15.01260038 98740
STARLINK-4390           
1 53653U 22105F   24170.19109551 -.00000519  00000+0 -35766-4 0  9994
2 53653  97.6566  50.9534 0003905  88.2344 271.9327 15.01261114 99062
STARLINK-4420           
1 53654U 22105G   24169.23388649  .00000381  00000+0  34228-4 0  9992
2 53654  97.6571  50.0536 0000637  91.6829 268.4468 15.01262005 98647
STARLINK-4470           
1 53655U 22105H   24169.90410561 -.00004394  00000+0 -33772-3 0  9998
2 53655  97.6565  50.7132 0000673 148.3269 211.7996 15.01259171 98746
STARLINK-4466           
1 53656U 22105J   24169.42829052  .00000716  00000+0  60328-4 0  9995
2 53656  97.6593  50.2542 0001547  93.8958 266.2443 15.01261298 98675
STARLINK-4469           
1 53657U 22105K   24169.90225971 -.00000383  00000+0 -25235-4 0  9999
2 53657  97.6567  50.7112 0001167 223.5929 136.5203 15.01259705 98744
STARLINK-4452           
1 53658U 22105L   24169.43014199 -.00000421  00000+0 -28165-4 0  9994
2 53658  97.6582  50.2491 0000852  99.6966 260.4355 15.01257880 98679
STARLINK-4463           
1 53659U 22105M   24169.23228114  .00000055  00000+0  88386-5 0  9990
2 53659  97.6575  50.0526 0001089  98.3770 261.7578 15.01258367 98640
STARLINK-4473           
1 53660U 22105N   24169.62455033  .00003662  00000+0  28947-3 0  9999
2 53660  97.6595  50.4488 0001551  95.7118 264.4283 15.01269133 98709
STARLINK-4472           
1 53661U 22105P   24170.15985947 -.00002195  00000+0 -16627-3 0  9996
2 53661  97.6586  50.9776 0001977  81.1150 279.0298 15.01275446 99064
STARLINK-4357           
1 53662U 22105Q   24169.95434929  .00000502  00000+0  43701-4 0  9994
2 53662  97.6591  50.7766 0001798  91.4470 268.6960 15.01261238 98757
STARLINK-4457           
1 53663U 22105R   24169.42644150  .00000349  00000+0  31789-4 0  9998
2 53663  97.6603  50.2498 0001662  86.9736 273.1678 15.01258728 98671
STARLINK-4471           
1 53664U 22105S   24170.21725573  .00001238  00000+0  10098-3 0  9994
2 53664  97.6584  51.0425 0001998  92.2428 267.9025 15.01258135 99073
STARLINK-4334           
1 53665U 22105T   24169.95225208 -.00000129  00000+0 -54579-5 0  9998
2 53665  97.6584  50.7855 0002029  89.7979 270.3478 15.01263848 98756
